GLOBALSTAR M084         
1 38040U 11080A   25192.16761513 -.00000101  00000+0  13547-4 0  9990
2 38040  52.0032 335.4702 0001096  97.8027  73.4802 12.62266994625972
GLOBALSTAR M080         
1 38041U 11080B   25192.51504622 -.00000101  00000+0  15865-4 0  9991
2 38041  52.0081 336.0131 0000719 138.7755 301.4100 12.62263864626007
GLOBALSTAR M082         
1 38042U 11080C   25192.20233402 -.00000088  00000+0  90532-4 0  9991
2 38042  52.0087 292.4291 0000558 162.9246 226.4266 12.62267024626709
GLOBALSTAR M092         
1 38043U 11080D   25192.57395527 -.00000090  00000+0  77511-4 0  9994
2 38043  52.0100  21.6741 0000861  87.2200 311.4228 12.62264700625243
GLOBALSTAR M090         
1 38044U 11080E   25192.54415197 -.00000072  00000+0  17476-3 0  9991
2 38044  52.0133 285.2321 0000407 126.7892 257.8600 12.62260742626738
GLOBALSTAR M086         
1 38045U 11080F   25192.17481913 -.00000077  00000+0  15173-3 0  9997
2 38045  51.9906 286.8399 0001066  47.5937 338.6324 12.62272339626690
GLOBALSTAR M097         
1 39072U 13005A   25192.19569367 -.00000102  00000+0  12305-4 0  9993
2 39072  52.0019 201.3463 0000122   2.5123 357.5744 12.62265643573925
GLOBALSTAR M093         
1 39073U 13005B   25192.16934899 -.00000103  00000+0  59646-5 0  9998
2 39073  51.9783 194.6910 0000172 332.2653  27.8204 12.62266062573912
